HST                     
1 20580U 90037B   26068.15977042  .00009063  00000+0  30023-3 0  9999
2 20580  28.4717  43.6133 0001837 120.9992 239.0785 15.29473555773239
STARLINK-33533          
1 63387U 25063AA  26068.35564524  .00034370  00000+0  11671-2 0  9993
2 63387  53.1604  51.5014 0001298  89.4968 270.6182 15.30202346 54694
